[{"OBJECT_NAME":"STARLINK-3110","OBJECT_ID":"2021-104N","EPOCH":"2026-03-09T16:49:16.649760","MEAN_MOTION":15.08842531,"ECCENTRICITY":0.00010989,"INCLINATION":53.2171,"RA_OF_ASC_NODE":229.0712,"ARG_OF_PERICENTER":94.2526,"MEAN_ANOMALY":265.8592,"EPHEMERIS_TYPE":0,"CLASSIFICATION_TYPE":"U","NORAD_CAT_ID":49420,"ELEMENT_SET_NO":999,"REV_AT_EPOCH":23862,"BSTAR":1.6960553e-5,"MEAN_MOTION_DOT":-1.8e-7,"MEAN_MOTION_DDOT":0},{"OBJECT_NAME":"KSLV-II R\/B","OBJECT_ID":"2025-274P","EPOCH":"2026-03-09T17:44:44.185056","MEAN_MOTION":14.98166503,"ECCENTRICITY":0.00605567,"INCLINATION":97.7452,"RA_OF_ASC_NODE":0.3618,"ARG_OF_PERICENTER":19.961,"MEAN_ANOMALY":340.3962,"EPHEMERIS_TYPE":0,"CLASSIFICATION_TYPE":"U","NORAD_CAT_ID":66663,"ELEMENT_SET_NO":999,"REV_AT_EPOCH":1543,"BSTAR":0.00059831331,"MEAN_MOTION_DOT":7.309e-5,"MEAN_MOTION_DDOT":0}]
